{
  "type": "FeatureCollection",
  "features": [
    {
      "type": "Feature",
      "properties": {
        "norad_id": 31841,
        "name": "FENGYUN 1C DEB",
        "group": "fengyun-1c-debris",
        "lat": 43.791454818098074,
        "lon": -14.10577680528229,
        "alt_km": 1091.4181514914017,
        "timestamp": "2025-12-15T04:01:20.736115+00:00",
        "meta_object_name": "FENGYUN 1C DEB",
        "meta_object_id": "1999-025CJF",
        "meta_epoch": "2025-12-09T06:12:44.774784",
        "meta_mean_motion": 14.03533428,
        "meta_eccentricity": 0.0308721,
        "meta_inclination": 98.4185,
        "meta_ra_of_asc_node": 152.251,
        "meta_arg_of_pericenter": 315.3739,
        "meta_mean_anomaly": 221.9811,
        "meta_ephemeris_type": 0,
        "meta_classification_type": "U",
        "meta_norad_cat_id": 31841,
        "meta_element_set_no": 999,
        "meta_rev_at_epoch": 59290,
        "meta_bstar": 0.0023276,
        "meta_mean_motion_dot": 5.531e-05,
        "meta_mean_motion_ddot": 0,
        "tle_line1": "1 31841U 99025CJF 25343.25885156  .00005531  00000+0  23276-2 0  9994",
        "tle_line2": "2 31841  98.4185 152.2510 0308721 315.3739 221.9811 14.03533428592904"
      },
      "geometry": {
        "type": "Point",
        "coordinates": [
          -14.10577680528229,
          43.791454818098074
        ]
      }
    },
    {
      "type": "Feature",
      "properties": {
        "norad_id": 31843,
        "name": "FENGYUN 1C DEB",
        "group": "fengyun-1c-debris",
        "lat": 73.72380708920774,
        "lon": -104.4072485877404,
        "alt_km": 1081.5315187457181,
        "timestamp": "2025-12-15T04:01:20.736126+00:00",
        "meta_object_name": "FENGYUN 1C DEB",
        "meta_object_id": "1999-025CJH",
        "meta_epoch": "2025-12-14T02:28:07.998240",
        "meta_mean_motion": 13.33901343,
        "meta_eccentricity": 0.06401097,
        "meta_inclination": 99.282,
        "meta_ra_of_asc_node": 288.6825,
        "meta_arg_of_pericenter": 350.7326,
        "meta_mean_anomaly": 8.2432,
        "meta_ephemeris_type": 0,
        "meta_classification_type": "U",
        "meta_norad_cat_id": 31843,
        "meta_element_set_no": 999,
        "meta_rev_at_epoch": 64714,
        "meta_bstar": 0.0071567737,
        "meta_mean_motion_dot": 0.00011463,
        "meta_mean_motion_ddot": 0,
        "tle_line1": "1 31843U 99025CJH 25348.10287035  .00011463  00000+0  71568-2 0  9995",
        "tle_line2": "2 31843  99.2820 288.6825 0640109 350.7326   8.2432 13.33901343647147"
      },
      "geometry": {
        "type": "Point",
        "coordinates": [
          -104.4072485877404,
          73.72380708920774
        ]
      }
    },
    {
      "type": "Feature",
      "properties": {
        "norad_id": 31844,
        "name": "FENGYUN 1C DEB",
        "group": "fengyun-1c-debris",
        "lat": -19.818772798092215,
        "lon": 154.47081354924865,
        "alt_km": 891.4985226404597,
        "timestamp": "2025-12-15T04:01:20.736137+00:00",
        "meta_object_name": "FENGYUN 1C DEB",
        "meta_object_id": "1999-025CJJ",
        "meta_epoch": "2025-12-13T22:19:33.784896",
        "meta_mean_motion": 14.19755878,
        "meta_eccentricity": 0.01034294,
        "meta_inclination": 100.3032,
        "meta_ra_of_asc_node": 336.7917,
        "meta_arg_of_pericenter": 347.7797,
        "meta_mean_anomaly": 12.0868,
        "meta_ephemeris_type": 0,
        "meta_classification_type": "U",
        "meta_norad_cat_id": 31844,
        "meta_element_set_no": 999,
        "meta_rev_at_epoch": 95349,
        "meta_bstar": 0.0011790432,
        "meta_mean_motion_dot": 2.577e-05,
        "meta_mean_motion_ddot": 0,
        "tle_line1": "1 31844U 99025CJJ 25347.93025214  .00002577  00000+0  11790-2 0  9992",
        "tle_line2": "2 31844 100.3032 336.7917 0103429 347.7797  12.0868 14.19755878953490"
      },
      "geometry": {
        "type": "Point",
        "coordinates": [
          154.47081354924865,
          -19.818772798092215
        ]
      }
    },
    {
      "type": "Feature",
      "properties": {
        "norad_id": 31850,
        "name": "FENGYUN 1C DEB",
        "group": "fengyun-1c-debris",
        "lat": -34.66602961063466,
        "lon": 40.10932361297484,
        "alt_km": 493.61147139433706,
        "timestamp": "2025-12-15T04:01:20.736147+00:00",
        "meta_object_name": "FENGYUN 1C DEB",
        "meta_object_id": "1999-025CJQ",
        "meta_epoch": "2025-12-11T21:51:41.514624",
        "meta_mean_motion": 15.32796894,
        "meta_eccentricity": 0.00770816,
        "meta_inclination": 98.5737,
        "meta_ra_of_asc_node": 30.3469,
        "meta_arg_of_pericenter": 92.2716,
        "meta_mean_anomaly": 268.7351,
        "meta_ephemeris_type": 0,
        "meta_classification_type": "U",
        "meta_norad_cat_id": 31850,
        "meta_element_set_no": 999,
        "meta_rev_at_epoch": 65816,
        "meta_bstar": 0.0039605566,
        "meta_mean_motion_dot": 0.0013997,
        "meta_mean_motion_ddot": 0,
        "tle_line1": "1 31850U 99025CJQ 25345.91089716  .00139970  00000+0  39606-2 0  9996",
        "tle_line2": "2 31850  98.5737  30.3469 0077081  92.2716 268.7351 15.32796894658165"
      },
      "geometry": {
        "type": "Point",
        "coordinates": [
          40.10932361297484,
          -34.66602961063466
        ]
      }
    },
    {
      "type": "Feature",
      "properties": {
        "norad_id": 31854,
        "name": "FENGYUN 1C DEB",
        "group": "fengyun-1c-debris",
        "lat": 3.4955909596627577,
        "lon": -8.244103033497733,
        "alt_km": 919.6055365981938,
        "timestamp": "2025-12-15T04:01:20.736157+00:00",
        "meta_object_name": "FENGYUN 1C DEB",
        "meta_object_id": "1999-025CJU",
        "meta_epoch": "2025-12-12T17:48:54.033120",
        "meta_mean_motion": 14.03073049,
        "meta_eccentricity": 0.00722693,
        "meta_inclination": 98.8473,
        "meta_ra_of_asc_node": 349.9436,
        "meta_arg_of_pericenter": 141.1479,
        "meta_mean_anomaly": 219.4914,
        "meta_ephemeris_type": 0,
        "meta_classification_type": "U",
        "meta_norad_cat_id": 31854,
        "meta_element_set_no": 999,
        "meta_rev_at_epoch": 69272,
        "meta_bstar": 0.00062449752,
        "meta_mean_motion_dot": 9.51e-06,
        "meta_mean_motion_ddot": 0,
        "tle_line1": "1 31854U 99025CJU 25346.74229205  .00000951  00000+0  62450-3 0  9991",
        "tle_line2": "2 31854  98.8473 349.9436 0072269 141.1479 219.4914 14.03073049692720"
      },
      "geometry": {
        "type": "Point",
        "coordinates": [
          -8.244103033497733,
          3.4955909596627577
        ]
      }
    },
    {
      "type": "Feature",
      "properties": {
        "norad_id": 31857,
        "name": "FENGYUN 1C DEB",
        "group": "fengyun-1c-debris",
        "lat": 52.61766660905441,
        "lon": -153.97755089065006,
        "alt_km": 1216.9273752110084,
        "timestamp": "2025-12-15T04:01:20.736167+00:00",
        "meta_object_name": "FENGYUN 1C DEB",
        "meta_object_id": "1999-025CJX",
        "meta_epoch": "2025-12-08T09:09:37.694592",
        "meta_mean_motion": 13.61900061,
        "meta_eccentricity": 0.0309157,
        "meta_inclination": 96.1892,
        "meta_ra_of_asc_node": 13.5368,
        "meta_arg_of_pericenter": 294.2443,
        "meta_mean_anomaly": 62.6695,
        "meta_ephemeris_type": 0,
        "meta_classification_type": "U",
        "meta_norad_cat_id": 31857,
        "meta_element_set_no": 999,
        "meta_rev_at_epoch": 61570,
        "meta_bstar": 0.0028041545,
        "meta_mean_motion_dot": 2.946e-05,
        "meta_mean_motion_ddot": 0,
        "tle_line1": "1 31857U 99025CJX 25342.38168628  .00002946  00000+0  28042-2 0  9995",
        "tle_line2": "2 31857  96.1892  13.5368 0309157 294.2443  62.6695 13.61900061615700"
      },
      "geometry": {
        "type": "Point",
        "coordinates": [
          -153.97755089065006,
          52.61766660905441
        ]
      }
    },
    {
      "type": "Feature",
      "properties": {
        "norad_id": 31861,
        "name": "FENGYUN 1C DEB",
        "group": "fengyun-1c-debris",
        "lat": 3.0343828371323758,
        "lon": 2.9400856459733604,
        "alt_km": 801.4408826681602,
        "timestamp": "2025-12-15T04:01:20.736178+00:00",
        "meta_object_name": "FENGYUN 1C DEB",
        "meta_object_id": "1999-025CKB",
        "meta_epoch": "2025-11-30T18:20:57.621120",
        "meta_mean_motion": 13.30200627,
        "meta_eccentricity": 0.04966148,
        "meta_inclination": 102.3423,
        "meta_ra_of_asc_node": 165.0071,
        "meta_arg_of_pericenter": 230.9853,
        "meta_mean_anomaly": 124.6046,
        "meta_ephemeris_type": 0,
        "meta_classification_type": "U",
        "meta_norad_cat_id": 31861,
        "meta_element_set_no": 999,
        "meta_rev_at_epoch": 66608,
        "meta_bstar": 0.0034105388,
        "meta_mean_motion_dot": 3.105e-05,
        "meta_mean_motion_ddot": 0,
        "tle_line1": "1 31861U 99025CKB 25334.76455580  .00003105  00000+0  34105-2 0  9994",
        "tle_line2": "2 31861 102.3423 165.0071 0496614 230.9853 124.6046 13.30200627666089"
      },
      "geometry": {
        "type": "Point",
        "coordinates": [
          2.9400856459733604,
          3.0343828371323758
        ]
      }
    }
  ]
}